NORBI                   
1 46494U 20068J   26201.55173516  .00014608  00000+0  26413-3 0  9994
2 46494  97.8619 220.4917 0008613 127.9082 232.2948 15.49773977321376
SALSAT                  
1 46495U 20068K   26200.97640307  .00004107  00000+0  14329-3 0  9993
2 46495  97.8865 206.0496 0009725 176.0322 184.0997 15.30211220320374
ICEYE-X6                
1 46497U 20068M   26201.57612148  .00001268  00000+0  94914-4 0  9998
2 46497  98.0993 196.8501 0006736 354.3403   5.7745 15.04683102318251
NETSAT-4                
1 46504U 20068U   26201.49255661  .00010922  00000+0  23466-3 0  9991
2 46504  97.8611 212.4367 0005405 174.8181 185.3124 15.44867524320917
NETSAT-3                
1 46505U 20068V   26201.45905678  .00011215  00000+0  25041-3 0  9995
2 46505  97.8662 210.5768 0004466 189.6822 170.4339 15.43720096320813
NETSAT-1                
1 46506U 20068W   26201.44645213  .00006906  00000+0  20396-3 0  9990
2 46506  97.8764 204.4930 0002782 232.1394 127.9596 15.35317638320409
NETSAT-2                
1 46507U 20068X   26201.28913389  .00013521  00000+0  26688-3 0  9996
2 46507  97.8622 212.2399 0002898 187.9093 172.2110 15.47303503320853
TIANQI-6                
1 46810U 20076D   26201.38892208  .00001674  00000+0  11034-3 0  9994
2 46810  34.9973 204.6625 0009538 104.0129 256.1642 15.07369440313599
KSM1-C                  
1 46906U 20081B   26201.37628330  .00004018  00000+0  15073-3 0  9990
2 46906  36.8934 213.9656 0001778 174.6085 185.4683 15.27218311314246
KSM1-D                  
1 46907U 20081C   26201.42278273  .00003007  00000+0  12110-3 0  9990
2 46907  36.8947 223.3389 0003645 192.4432 167.6228 15.25133564314171
KSM1-A                  
1 46912U 20081H   26201.39681363  .00003623  00000+0  13962-3 0  9990
2 46912  36.8942 216.4873 0004010 238.5009 121.5349 15.26411207314258
R2                      
1 46913U 20081J   26201.29920846  .00003909  00000+0  15276-3 0  9999
2 46913  36.8966 217.2443 0008758 209.7810 150.2441 15.25858930317049
KSM1-B                  
1 46914U 20081K   26201.43092069  .00003294  00000+0  13307-3 0  9993
2 46914  36.8998 223.9752 0005596 207.3980 152.6474 15.24918477317269
GONETS-M 20             
1 47227U 20091A   26201.65367617  .00000065  00000+0  39896-3 0  9994
2 47227  82.5041 281.6348 0022192 107.6813 252.6692 12.42894839255237
GONETS-M 21             
1 47228U 20091B   26201.62771106  .00000016  00000+0  39624-4 0  9990
2 47228  82.4964 280.3375 0015965 120.8742 239.3910 12.42887636255226
GONETS-M 22             
1 47229U 20091C   26201.60065757 -.00000066  00000+0 -55201-3 0  9992
2 47229  82.5022 281.2685 0023048 103.3061 257.0591 12.42893475255172
CUBEL                   
1 47448U 21006AM  26201.39290676  .00011493  00000+0  27015-3 0  9994
2 47448  97.2307 251.6815 0007583  67.5736 292.6314 15.42123949304871
ARKTIKA-M 1             
1 47719U 21016A   26195.40739072 -.00000301  00000+0  00000+0 0  9996
2 47719  63.2662  53.6722 7297332 270.0591  14.4994  2.00611590 39330
STARLINK-2342           
1 47883U 21021Z   26201.66668981  .00301958  47219-4  73114-3 0  9999
2 47883  53.1501 338.5461 0011177 315.0770  73.0915 15.95756107  5777
GRUS-1B                 
1 47934U 21022C   26201.62502891  .00001242  00000+0  10761-3 0  9994
2 47934  97.5336  83.7051 0014600 196.8289 163.2452 14.98789195290904
UNISAT-7                
1 47945U 21022P   26201.47313749  .00008856  00000+0  21467-3 0  9994
2 47945  97.3844 106.7587 0007197 326.7940  33.2855 15.41284938294988
GLOBAL-9                
1 47971U 21023G   26200.98731968  .00012836  00000+0  24888-3 0  9999
2 47971  44.9814  65.9997 0004042 200.0916 159.9816 15.47734113300023
AII-BRAVO               
1 48270U 21034C   26201.09622661  .00002658  00000+0  19824-3 0  9991
2 48270  97.5604 255.2571 0006731 145.5882 214.5781 15.03696158284568
TYVAK-182A              
1 48271U 21034D   26201.41193580  .00001782  00000+0  12506-3 0  9998
2 48271  97.5703 259.7553 0005281 198.7621 161.3413 15.06427196284836
CSS (TIANHE)            
1 48274U 21035A   26201.47071797  .00012149  00000+0  16027-3 0  9994
2 48274  41.4682 119.8551 0001861 306.8852  53.1815 15.58221898298360
TYVAK-0130              
1 48606U 21041BF  26201.47327830  .00003070  00000+0  12364-3 0  9995
2 48606  52.9945 231.4502 0008419 279.2836  80.7209 15.27979386285475
HAIYANG-2D              
1 48621U 21043A   26201.62040694 -.00000020  00000+0  55884-4 0  9999
2 48621  65.9962 221.4626 0011623 265.1163  94.8578 13.83374236261178
2021-050D               
1 48843U 21050D   26201.63584157  .00002502  00000+0  10734-3 0  9991
2 48843  97.3320 276.9144 0006864 136.4932 223.6847 15.23624953284059
