OBJECT_NAME,OBJECT_ID,EPOCH,MEAN_MOTION,ECCENTRICITY,INCLINATION,RA_OF_ASC_NODE,ARG_OF_PERICENTER,MEAN_ANOMALY,EPHEMERIS_TYPE,CLASSIFICATION_TYPE,NORAD_CAT_ID,ELEMENT_SET_NO,REV_AT_EPOCH,BSTAR,MEAN_MOTION_DOT,MEAN_MOTION_DDOT
NORBI,2020-068J,2026-07-20T13:14:29.917824,15.49773977,.0008613,97.8619,220.4917,127.9082,232.2948,0,U,46494,999,32137,.26412961E-3,.14608E-3,0
SALSAT,2020-068K,2026-07-19T23:26:01.225248,15.30211220,.00097251,97.8865,206.0496,176.0322,184.0997,0,U,46495,999,32037,.14328943E-3,.4107E-4,0
ICEYE-X6,2020-068M,2026-07-20T13:49:36.895872,15.04683102,.00067361,98.0993,196.8501,354.3403,5.7745,0,U,46497,999,31825,.94914224E-4,.1268E-4,0
NETSAT-4,2020-068U,2026-07-20T11:49:16.891104,15.44867524,.00054059,97.8611,212.4367,174.8181,185.3124,0,U,46504,999,32091,.23466124E-3,.10922E-3,0
NETSAT-3,2020-068V,2026-07-20T11:01:02.505792,15.43720096,.00044667,97.8662,210.5768,189.6822,170.4339,0,U,46505,999,32081,.25041468E-3,.11215E-3,0
NETSAT-1,2020-068W,2026-07-20T10:42:53.464032,15.35317638,.00027825,97.8764,204.4930,232.1394,127.9596,0,U,46506,999,32040,.20395693E-3,.6906E-4,0
NETSAT-2,2020-068X,2026-07-20T06:56:21.168096,15.47303503,.00028987,97.8622,212.2399,187.9093,172.2110,0,U,46507,999,32085,.26687546E-3,.13521E-3,0
TIANQI-6,2020-076D,2026-07-20T09:20:02.867712,15.07369440,.00095384,34.9973,204.6625,104.0129,256.1642,0,U,46810,999,31359,.11034485E-3,.1674E-4,0
KSM1-C,2020-081B,2026-07-20T09:01:50.877120,15.27218311,.00017788,36.8934,213.9656,174.6085,185.4683,0,U,46906,999,31424,.15073402E-3,.4018E-4,0
KSM1-D,2020-081C,2026-07-20T10:08:48.427872,15.25133564,.00036453,36.8947,223.3389,192.4432,167.6228,0,U,46907,999,31417,.12109537E-3,.3007E-4,0
KSM1-A,2020-081H,2026-07-20T09:31:24.697632,15.26411207,.00040106,36.8942,216.4873,238.5009,121.5349,0,U,46912,999,31425,.13961598E-3,.3623E-4,0
R2,2020-081J,2026-07-20T07:10:51.610944,15.25858930,.00087585,36.8966,217.2443,209.7810,150.2441,0,U,46913,999,31704,.15275632E-3,.3909E-4,0
KSM1-B,2020-081K,2026-07-20T10:20:31.547616,15.24918477,.00055964,36.8998,223.9752,207.3980,152.6474,0,U,46914,999,31726,.13307092E-3,.3294E-4,0
GONETS-M 20,2020-091A,2026-07-20T15:41:17.621088,12.42894839,.00221921,82.5041,281.6348,107.6813,252.6692,0,U,47227,999,25523,.3989626E-3,.65E-6,0
GONETS-M 21,2020-091B,2026-07-20T15:03:54.235584,12.42887636,.0015965,82.4964,280.3375,120.8742,239.3910,0,U,47228,999,25522,.39623519E-4,.16E-6,0
GONETS-M 22,2020-091C,2026-07-20T14:24:56.814048,12.42893475,.00230488,82.5022,281.2685,103.3061,257.0591,0,U,47229,999,25517,-.55201075E-3,-.66E-6,0
CUBEL,2021-006AM,2026-07-20T09:25:47.144064,15.42123949,.00075832,97.2307,251.6815,67.5736,292.6314,0,U,47448,999,30487,.27015446E-3,.11493E-3,0
ARKTIKA-M 1,2021-016A,2026-07-14T09:46:38.558208,2.00611590,.7297332,63.2662,53.6722,270.0591,14.4994,0,U,47719,999,3933,0,-.301E-5,0
STARLINK-2342,2021-021Z,2026-07-20T16:00:01.999584,15.95756107,.00111773,53.1501,338.5461,315.0770,73.0915,0,U,47883,999,577,.73114209E-3,.301958E-2,.47218877E-4
GRUS-1B,2021-022C,2026-07-20T15:00:02.497824,14.98789195,.00146,97.5336,83.7051,196.8289,163.2452,0,U,47934,999,29090,.10761495E-3,.1242E-4,0
UNISAT-7,2021-022P,2026-07-20T11:21:19.079136,15.41284938,.00071979,97.3844,106.7587,326.7940,33.2855,0,U,47945,999,29498,.21466965E-3,.8856E-4,0
GLOBAL-9,2021-023G,2026-07-19T23:41:44.420352,15.47734113,.00040425,44.9814,65.9997,200.0916,159.9816,0,U,47971,999,30002,.24887501E-3,.12836E-3,0
AII-BRAVO,2021-034C,2026-07-20T02:18:33.979104,15.03696158,.00067317,97.5604,255.2571,145.5882,214.5781,0,U,48270,999,28456,.19823868E-3,.2658E-4,0
TYVAK-182A,2021-034D,2026-07-20T09:53:11.253120,15.06427196,.00052812,97.5703,259.7553,198.7621,161.3413,0,U,48271,999,28483,.12506268E-3,.1782E-4,0
CSS (TIANHE),2021-035A,2026-07-20T11:17:50.032608,15.58221898,.00018614,41.4682,119.8551,306.8852,53.1815,0,U,48274,999,29836,.16026966E-3,.12149E-3,0
TYVAK-0130,2021-041BF,2026-07-20T11:21:31.245120,15.27979386,.00084197,52.9945,231.4502,279.2836,80.7209,0,U,48606,999,28547,.12364126E-3,.307E-4,0
HAIYANG-2D,2021-043A,2026-07-20T14:53:23.159616,13.83374236,.00116235,65.9962,221.4626,265.1163,94.8578,0,U,48621,999,26117,.55883913E-4,-.2E-6,0
2021-050D,2021-050D,2026-07-20T15:15:36.711648,15.23624953,.0006864,97.3320,276.9144,136.4932,223.6847,0,U,48843,999,28405,.1073407E-3,.2502E-4,0
